NORAD_CAT_ID,OBJECT_NAME,OBJECT_TYPE,EPOCH,MEAN_MOTION,ECCENTRICITY,INCLINATION,RA_OF_ASC_NODE,ARG_OF_PERICENTER,MEAN_ANOMALY,BSTAR,MEAN_MOTION_DOT,MEAN_MOTION_DDOT,TLE_LINE0,TLE_LINE1,TLE_LINE2,SEMIMAJOR_AXIS,PERIOD,APOGEE,PERIGEE,DECAYED
52548.0,STARLINK-3931,PAYLOAD,2022-11-10 19:34:33,15.08812755,0.000201,53.2173,182.905,48.8047,311.3118,-0.0002368,-4.052e-05,0.0,0 STARLINK-3931,1 52548U 22051R   22314.81566501 -.00004052  00000-0 -23680-3 0  9993,2 52548  53.2173 182.9050 0002010  48.8047 311.3118 15.08812755 28040,6917.964,95.439,541.219,538.438,0.0
52548.0,STARLINK-3931,PAYLOAD,2022-11-11 03:31:30,15.08808823,0.0002027,53.2178,181.4182,45.32899999999999,314.7867,0.0002151,3.134e-05,0.0,0 STARLINK-3931,1 52548U 22051R   22315.14687649  .00003134  00000-0  21510-3 0  9995,2 52548  53.2178 181.4182 0002027  45.3290 314.7867 15.08808823 28167,6917.976,95.44,541.243,538.438,0.0
52548.0,STARLINK-3931,PAYLOAD,2022-11-11 08:17:39,15.08812284,0.0002018,53.2179,180.5261,44.2667,315.8487,0.00021805,3.181e-05,0.0,0 STARLINK-3931,1 52548U 22051R   22315.34559675  .00003181  00000-0  21805-3 0  9993,2 52548  53.2179 180.5261 0002018  44.2667 315.8487 15.08812284 28124,6917.965,95.439,541.226,538.434,0.0
52548.0,STARLINK-3931,PAYLOAD,2022-11-11 21:00:43,15.08842941,0.0001945,53.2172,178.1474,44.4727,315.6421,0.00049466,7.594e-05,0.0,0 STARLINK-3931,1 52548U 22051R   22315.87550825  .00007594  00000-0  49466-3 0  9994,2 52548  53.2172 178.1474 0001945  44.4727 315.6421 15.08842941 28278,6917.871,95.437,541.082,538.391,0.0
52548.0,STARLINK-3931,PAYLOAD,2022-11-12 14:29:57,15.08874624,0.0001885,53.2163,174.8764,41.6928,318.4207,0.00090886,0.0001422,0.0,0 STARLINK-3931,1 52548U 22051R   22316.60413884  .00014220  00000-0  90886-3 0  9995,2 52548  53.2163 174.8764 0001885  41.6928 318.4207 15.08874624 28386,6917.775,95.435,540.944,538.336,0.0
52548.0,STARLINK-3931,PAYLOAD,2022-11-12 17:40:44,15.08866112,0.0001998,53.2163,174.2816,46.9609,313.155,0.00059058,9.13e-05,0.0,0 STARLINK-3931,1 52548U 22051R   22316.73662067  .00009130  00000-0  59058-3 0  9998,2 52548  53.2163 174.2816 0001998  46.9609 313.1550 15.08866112 28406,6917.801,95.436,541.048,538.283,0.0
52548.0,STARLINK-3931,PAYLOAD,2022-11-12 20:51:30,15.08857413,0.0002047,53.2168,173.687,43.4819,316.6335,0.00013441,1.853e-05,0.0,0 STARLINK-3931,1 52548U 22051R   22316.86910060  .00001853  00000-0  13441-3 0  9991,2 52548  53.2168 173.6870 0002047  43.4819 316.6335 15.08857413 28352,6917.8269999999975,95.436,541.1080000000002,538.276,0.0
52548.0,STARLINK-3931,PAYLOAD,2022-11-13 03:13:02,15.08857527,0.0002079,53.2167,172.4975,43.3183,316.7972,0.00012188,1.653e-05,0.0,0 STARLINK-3931,1 52548U 22051R   22317.13405733  .00001653  00000-0  12188-3 0  9993,2 52548  53.2167 172.4975 0002079  43.3183 316.7972 15.08857527 28468,6917.8269999999975,95.436,541.13,538.254,0.0
52548.0,STARLINK-3931,PAYLOAD,2022-11-13 19:06:54,15.08844422,0.0002194,53.2172,169.5243,43.8719,316.2447,-6.392e-05,-1.306e-05,0.0,0 STARLINK-3931,1 52548U 22051R   22317.79645882 -.00001306  00000-0 -63920-4 0  9994,2 52548  53.2172 169.5243 0002194  43.8719 316.2447 15.08844422 28560,6917.8669999999975,95.437,541.25,538.214,0.0
52548.0,STARLINK-3931,PAYLOAD,2022-11-14 07:49:58,15.08850599,0.0002152,53.2179,167.1451,47.6601,312.4574,1.0357e-06,-2.72e-06,0.0,0 STARLINK-3931,1 52548U 22051R   22318.32637541 -.00000272  00000-0  10357-5 0  9994,2 52548  53.2179 167.1451 0002152  47.6601 312.4574 15.08850599 28570,6917.848000000001,95.437,541.202,538.224,0.0
52548.0,STARLINK-3931,PAYLOAD,2022-11-14 17:22:17,15.08855836,0.0002132,53.2188,165.3608,48.3004,311.817,6.5002e-05,7.47e-06,0.0,0 STARLINK-3931,1 52548U 22051R   22318.72380837  .00000747  00000-0  65002-4 0  9993,2 52548  53.2188 165.3608 0002132  48.3004 311.8170 15.08855836 28638,6917.831999999999,95.437,541.172,538.222,0.0
52548.0,STARLINK-3931,PAYLOAD,2022-11-14 20:33:03,15.08847513,0.0002098,53.2184,164.7666,45.2555,314.8608,4.71e-05,4.62e-06,0.0,0 STARLINK-3931,1 52548U 22051R   22318.85629260  .00000462  00000-0  47100-4 0  9996,2 52548  53.2184 164.7666 0002098  45.2555 314.8608 15.08847513 28721,6917.857,95.437,541.174,538.271,0.0
52548.0,STARLINK-3931,PAYLOAD,2022-11-15 01:19:13,15.08840062,0.0002101,53.2183,163.8746,45.1822,314.9341,-2.0911e-05,-6.21e-06,0.0,0 STARLINK-3931,1 52548U 22051R   22319.05501835 -.00000621  00000-0 -20911-4 0  9996,2 52548  53.2183 163.8746 0002101  45.1822 314.9341 15.08840062 28750,6917.88,95.438,541.1990000000002,538.2919999999998,0.0
52548.0,STARLINK-3931,PAYLOAD,2022-11-15 20:23:50,15.08841291,0.0002098,53.2184,160.3063,46.127,313.9895,5.789100000000001e-05,6.33e-06,0.0,0 STARLINK-3931,1 52548U 22051R   22319.84989525  .00000633  00000-0  57891-4 0  9997,2 52548  53.2184 160.3063 0002098  46.1270 313.9895 15.08841291 28802,6917.876,95.437,541.193,538.29,0.0
52548.0,STARLINK-3931,PAYLOAD,2022-11-16 13:53:04,15.08849033,0.0002161,53.2183,157.0351,48.1629,311.9548,5.0448e-05,5.15e-06,0.0,0 STARLINK-3931,1 52548U 22051R   22320.57852936  .00000515  00000-0  50448-4 0  9994,2 52548  53.2183 157.0351 0002161  48.1629 311.9548 15.08849033 28989,6917.853,95.437,541.2130000000002,538.2230000000002,0.0
52548.0,STARLINK-3931,PAYLOAD,2022-11-16 20:14:37,15.08845083,0.0002181,53.2185,155.8449,49.0181,311.0999,4.4432e-05,4.19e-06,0.0,0 STARLINK-3931,1 52548U 22051R   22320.84349095  .00000419  00000-0  44432-4 0  9990,2 52548  53.2185 155.8449 0002181  49.0181 311.0999 15.08845083 28959,6917.865,95.437,541.239,538.221,0.0
52548.0,STARLINK-3931,PAYLOAD,2022-11-16 23:25:24,15.088408800000002,0.00024,53.2198,155.252,46.1018,314.0172,-2.5379e-05,-6.92e-06,0.0,0 STARLINK-3931,1 52548U 22051R   22320.97597642 -.00000692  00000-0 -25379-4 0  9991,2 52548  53.2198 155.2520 0002400  46.1018 314.0172 15.08840880 29045,6917.878000000002,95.437,541.403,538.082,0.0
52548.0,STARLINK-3931,PAYLOAD,2022-11-17 05:46:57,15.08832831,0.0002168,53.2187,154.0615,46.2386,313.8785,5.861100000000001e-05,6.44e-06,0.0,0 STARLINK-3931,1 52548U 22051R   22321.24094113  .00000644  00000-0  58611-4 0  9997,2 52548  53.2187 154.0615 0002168  46.2386 313.8785 15.08832831 29083,6917.901999999999,95.438,541.2669999999998,538.268,0.0
52548.0,STARLINK-3931,PAYLOAD,2022-11-18 05:37:44,15.08838915,0.0002181,53.2184,149.6017,47.7259,312.3917,3.6531e-05,2.93e-06,0.0,0 STARLINK-3931,1 52548U 22051R   22322.23453843  .00000293  00000-0  36531-4 0  9993,2 52548  53.2184 149.6017 0002181  47.7259 312.3917 15.08838915 29233,6917.884,95.438,541.257,538.24,0.0
52548.0,STARLINK-3931,PAYLOAD,2022-11-19 05:28:30,15.08841944,0.0002133,53.2186,145.141,48.4771,311.6404,0.0001761,2.516e-05,0.0,0 STARLINK-3931,1 52548U 22051R   22323.22813551  .00002516  00000-0  17610-3 0  9995,2 52548  53.2186 145.1410 0002133  48.4771 311.6404 15.08841944 29315,6917.874,95.437,541.215,538.264,0.0
52548.0,STARLINK-3931,PAYLOAD,2022-11-19 18:11:35,15.0884622,0.0002144,53.2185,142.7622,49.3301,310.7877,0.0001795,2.57e-05,0.0,0 STARLINK-3931,1 52548U 22051R   22323.75805302  .00002570  00000-0  17950-3 0  9995,2 52548  53.2185 142.7622 0002144  49.3301 310.7877 15.08846220 29465,6917.861,95.437,541.21,538.243,0.0
52548.0,STARLINK-3931,PAYLOAD,2022-11-20 11:40:50,15.08845111,0.0002512,53.216,139.4931,53.2923,306.8299,0.00012442,1.693e-05,0.0,0 STARLINK-3931,1 52548U 22051R   22324.48669322  .00001693  00000-0  12442-3 0  9992,2 52548  53.2160 139.4931 0002512  53.2923 306.8299 15.08845111 29504,6917.865,95.437,541.4680000000002,537.992,0.0
52548.0,STARLINK-3931,PAYLOAD,2022-11-20 18:02:23,15.08839372,0.0002242,53.2175,138.3018,52.5242,307.5954,3.0158e-05,1.92e-06,0.0,0 STARLINK-3931,1 52548U 22051R   22324.75165553  .00000192  00000-0  30158-4 0  9997,2 52548  53.2175 138.3018 0002242  52.5242 307.5954 15.08839372 29542,6917.882,95.438,541.298,538.196,0.0
52548.0,STARLINK-3931,PAYLOAD,2022-11-21 05:10:05,15.08839375,0.0002194,53.2177,136.2204,51.89100000000001,308.228,2.4926e-05,1.08e-06,0.0,0 STARLINK-3931,1 52548U 22051R   22325.21533628  .00000108  00000-0  24926-4 0  9994,2 52548  53.2177 136.2204 0002194  51.8910 308.2280 15.08839375 29686,6917.882,95.438,541.265,538.23,0.0
52548.0,STARLINK-3931,PAYLOAD,2022-11-21 11:31:37,15.08842325,0.0002185,53.2179,135.0309,51.87,308.2488,7.3947e-05,8.89e-06,0.0,0 STARLINK-3931,1 52548U 22051R   22325.48029507  .00000889  00000-0  73947-4 0  9992,2 52548  53.2179 135.0309 0002185  51.8700 308.2488 15.08842325 29654,6917.873000000001,95.437,541.25,538.227,0.0
52548.0,STARLINK-3931,PAYLOAD,2022-11-21 21:03:56,15.08844143,0.0002238,53.2178,133.2469,55.2363,304.8839,0.00013507,1.862e-05,0.0,0 STARLINK-3931,1 52548U 22051R   22325.87773474  .00001862  00000-0  13507-3 0  9991,2 52548  53.2178 133.2469 0002238  55.2363 304.8839 15.08844143 29711,6917.868,95.437,541.281,538.185,0.0
52548.0,STARLINK-3931,PAYLOAD,2022-11-21 22:39:19,15.08844427,0.0002243,53.2177,132.9496,56.0749,304.0456,0.00014656,2.045e-05,0.0,0 STARLINK-3931,1 52548U 22051R   22325.94397473  .00002045  00000-0  14656-3 0  9990,2 52548  53.2177 132.9496 0002243  56.0749 304.0456 15.08844427 29722,6917.8669999999975,95.437,541.284,538.18,0.0
52548.0,STARLINK-3931,PAYLOAD,2022-11-22 17:43:56,15.08847591,0.0002246,53.2178,129.3812,51.5663,308.553,0.0002753,4.097e-05,0.0,0 STARLINK-3931,1 52548U 22051R   22326.73885275  .00004097  00000-0  27530-3 0  9994,2 52548  53.2178 129.3812 0002246  51.5663 308.5530 15.08847591 29911,6917.857,95.437,541.276,538.168,0.0
52548.0,STARLINK-3931,PAYLOAD,2022-11-22 22:30:06,15.08837292,0.0002259,53.2178,128.4896,50.1058,310.0133,7.9727e-05,9.81e-06,0.0,0 STARLINK-3931,1 52548U 22051R   22326.93757703  .00000981  00000-0  79727-4 0  9994,2 52548  53.2178 128.4896 0002259  50.1058 310.0133 15.08837292 29947,6917.889,95.438,541.316,538.191,0.0
